H1 CPF 01  gfz 2022 01 30 01  5301 terrasarx 
H2 0702601  6201 31698    2022 01 30 00 59 42 2022 02 04 00 00 42   120 1 1  0 0 0
H9
10 0 59613  22302.000000  0   -6859703.078    375035.607    508918.652
10 0 59613  22422.000000  0   -6720741.449    544932.157   1404569.618
10 0 59613  22542.000000  0   -6461408.510    701816.015   2275484.841
10 0 59613  22662.000000  0   -6086498.151    840878.098   3106324.225
10 0 59613  22782.000000  0   -5602925.191    957725.529   3882460.530
10 0 59613  22902.000000  0   -5019588.841   1048495.055   4590241.882
10 0 59613  23022.000000  0   -4347198.853   1109953.681   5217233.682
10 0 59613  23142.000000  0   -3598069.076   1139584.011   5752435.388
10 0 59613  23262.000000  0   -2785883.625   1135652.953   6186470.446
10 0 59613  23382.000000  0   -1925439.487   1097262.064   6511746.467
10 0 59613  23502.000000  0   -1032370.415   1024379.322   6722581.824
10 0 59613  23622.000000  0    -122860.200    917850.711   6815297.619
10 0 59613  23742.000000  0     786650.208    779392.058   6788277.220
10 0 59613  23862.000000  0    1679758.565    611561.401   6641992.526
10 0 59613  23982.000000  0    2540395.773    417712.336   6378996.437
10 0 59613  24102.000000  0    3353114.761    201928.721   6003882.185
10 0 59613  24222.000000  0    4103370.111    -31058.572   5523208.138
10 0 59613  24342.000000  0    4777782.151   -275971.272   4945388.903
10 0 59613  24462.000000  0    5364381.787   -527097.718   4280553.956
10 0 59613  24582.000000  0    5852831.401   -778419.635   3540375.100
10 0 59613  24702.000000  0    6234617.675  -1023748.688   2737864.190
10 0 59613  24822.000000  0    6503210.023  -1256869.857   1887143.202
10 0 59613  24942.000000  0    6654180.068  -1471687.329   1003191.826
10 0 59613  25062.000000  0    6685280.879  -1662371.277    101578.456
10 0 59613  25182.000000  0    6596482.878  -1823501.152   -801823.195
10 0 59613  25302.000000  0    6389962.993  -1950199.914  -1691122.665
10 0 59613  25422.000000  0    6070050.334  -2038257.670  -2550700.795
10 0 59613  25542.000000  0    5643128.076  -2084240.624  -3365490.265
10 0 59613  25662.000000  0    5117496.331  -2085583.030  -4121242.179
10 0 59613  25782.000000  0    4503200.616  -2040660.166  -4804774.634
10 0 59613  25902.000000  0    3811829.154  -1948841.294  -5404199.052
10 0 59613  26022.000000  0    3056284.082  -1810521.422  -5909118.956
10 0 59613  26142.000000  0    2250534.777  -1627131.171  -6310799.188
10 0 59613  26262.000000  0    1409357.546  -1401125.165  -6602307.134
10 0 59613  26382.000000  0     548064.050  -1135949.415  -6778621.542
10 0 59613  26502.000000  0    -317773.828   -835989.137  -6836709.546
10 0 59613  26622.000000  0   -1172599.564   -506497.099  -6775572.663
10 0 59613  26742.000000  0   -2001145.112   -153503.703  -6596262.399
10 0 59613  26862.000000  0   -2788697.531    216290.695  -6301863.059
10 0 59613  26982.000000  0   -3521354.245    595638.643  -5897444.270
10 0 59613  27102.000000  0   -4186266.367    976883.093  -5389983.846
10 0 59613  27222.000000  0   -4771865.825   1352106.671  -4788258.341
10 0 59613  27342.000000  0   -5268072.503   1713292.141  -4102703.865
10 0 59613  27462.000000  0   -5666476.314   2052490.404  -3345244.419
10 0 59613  27582.000000  0   -5960489.978   2361991.153  -2529092.445
10 0 59613  27702.000000  0   -6145469.776   2634493.761  -1668522.970
10 0 59613  27822.000000  0   -6218799.872   2863274.359   -778624.452
10 0 59613  27942.000000  0   -6179937.524   3042344.629    124969.265
10 0 59613  28062.000000  0   -6030416.452   3166597.460   1026361.052
10 0 59613  28182.000000  0   -5773807.057   3231936.045   1909678.909
10 0 59613  28302.000000  0   -5415635.566   3235382.695   2759364.494
10 0 59613  28422.000000  0   -4963264.354   3175164.773   3560455.049
10 0 59613  28542.000000  0   -4425736.181   3050774.951   4298853.821
10 0 59613  28662.000000  0   -3813586.224   2863004.458   4961581.217
10 0 59613  28782.000000  0   -3138628.770   2613949.885   5537002.773
10 0 59613  28902.000000  0   -2413722.103   2306993.640   6015032.002
10 0 59613  29022.000000  0   -1652516.706   1946757.378   6387302.698
10 0 59613  29142.000000  0    -869192.968   1539030.308   6647308.871
10 0 59613  29262.000000  0     -78195.440   1090674.040   6790510.933
10 0 59613  29382.000000  0     706032.936    609505.770   6814409.995
10 0 59613  29502.000000  0    1469313.620    104162.006   6718588.426
10 0 59613  29622.000000  0    2197987.468   -416055.560   6504716.983
10 0 59613  29742.000000  0    2879158.560   -941350.700   6176528.440
10 0 59613  29862.000000  0    3500923.885  -1461615.939   5739757.279
10 0 59613  29982.000000  0    4052585.122  -1966626.734   5202045.068
10 0 59613  30102.000000  0    4524836.920  -2446242.315   4572812.123
10 0 59613  30222.000000  0    4909930.272  -2890610.216   3863098.951
10 0 59613  30342.000000  0    5201807.898  -3290370.843   3085376.181
10 0 59613  30462.000000  0    5396206.537  -3636855.822   2253324.866
10 0 59613  30582.000000  0    5490722.625  -3922276.087   1381593.306
10 0 59613  30702.000000  0    5484841.566  -4139895.937    485534.266
10 0 59613  30822.000000  0    5379928.861  -4284186.730   -419072.678
10 0 59613  30942.000000  0    5179183.269  -4350957.955  -1316307.903
10 0 59613  31062.000000  0    4887552.476  -4337460.447  -2190400.925
10 0 59613  31182.000000  0    4511613.786  -4242460.023  -3026015.034
10 0 59613  31302.000000  0    4059423.792  -4066280.257  -3808521.028
10 0 59613  31422.000000  0    3540340.808  -3810813.025  -4524254.668
10 0 59613  31542.000000  0    2964825.472  -3479497.991  -5160752.570
10 0 59613  31662.000000  0    2344224.483  -3077271.730  -5706962.508
10 0 59613  31782.000000  0    1690544.023  -2610489.318  -6153424.787
10 0 59613  31902.000000  0    1016217.131  -2086820.619  -6492426.414
10 0 59613  32022.000000  0     333867.483  -1515120.525  -6718124.584
10 0 59613  32142.000000  0    -343924.085   -905277.759  -6826636.546
10 0 59613  32262.000000  0   -1004846.197   -268045.559  -6816098.071
10 0 59613  32382.000000  0   -1637075.131    385143.794  -6686691.714
10 0 59613  32502.000000  0   -2229481.586   1042378.835  -6440643.358
10 0 59613  32622.000000  0   -2771822.068   1691480.639  -6082188.098
10 0 59613  32742.000000  0   -3254913.638   2320223.084  -5617505.562
10 0 59613  32862.000000  0   -3670790.468   2916560.060  -5054625.109
10 0 59613  32982.000000  0   -4012839.720   3468855.723  -4403298.543
10 0 59613  33102.000000  0   -4275912.121   3966112.672  -3674840.745
10 0 59613  33222.000000  0   -4456404.187   4398193.838  -2881941.965
10 0 59613  33342.000000  0   -4552312.530   4756033.703  -2038453.209
10 0 59613  33462.000000  0   -4563257.178   5031832.738  -1159146.978
10 0 59613  33582.000000  0   -4490473.717   5219231.790   -259457.371
10 0 59613  33702.000000  0   -4336770.996   5313459.637    644797.191
10 0 59613  33822.000000  0   -4106457.398   5311449.805   1537698.926
10 0 59613  33942.000000  0   -3805236.446   5211923.623   2403521.711
10 0 59613  34062.000000  0   -3440072.853   5015435.255   3227017.428
10 0 59613  34182.000000  0   -3019033.833   4724379.954   3993690.942
10 0 59613  34302.000000  0   -2551111.396   4342965.979   4690059.475
10 0 59613  34422.000000  0   -2046028.611   3877149.795   5303891.737
10 0 59613  34542.000000  0   -1514035.335   3334536.491   5824421.822
10 0 59613  34662.000000  0    -965697.713   2724248.446   6242533.962
10 0 59613  34782.000000  0    -411687.161   2056765.250   6550915.572
10 0 59613  34902.000000  0     137426.521   1343740.230   6744178.623
10 0 59613  35022.000000  0     671376.497    597794.326   6818948.812
10 0 59613  35142.000000  0    1180389.967   -167707.502   6773919.801
10 0 59613  35262.000000  0    1655365.928   -938894.648   6609875.466
10 0 59613  35382.000000  0    2088037.595  -1701641.752   6329677.373
10 0 59613  35502.000000  0    2471116.812  -2441826.678   5938218.854
10 0 59613  35622.000000  0    2798418.912  -3145593.248   5442345.048
10 0 59613  35742.000000  0    3064964.732  -3799613.062   4850738.704
10 0 59613  35862.000000  0    3267058.457  -4391341.853   4173774.128
10 0 59613  35982.000000  0    3402340.475  -4909266.558   3423339.460
10 0 59613  36102.000000  0    3469812.422  -5343135.856   2612629.286
10 0 59613  36222.000000  0    3469834.561  -5684170.040   1755911.517
10 0 59613  36342.000000  0    3404094.454  -5925244.390    868272.168
10 0 59613  36462.000000  0    3275548.339  -6061040.053    -34656.366
10 0 59613  36582.000000  0    3088337.515  -6088161.978   -936977.733
10 0 59613  36702.000000  0    2847678.858  -6005217.302  -1822822.179
10 0 59613  36822.000000  0    2559733.708  -5812852.248  -2676632.930
10 0 59613  36942.000000  0    2231459.899  -5513749.195  -3483446.061
10 0 59613  37062.000000  0    1870448.572  -5112582.115  -4229156.979
10 0 59613  37182.000000  0    1484751.496  -4615931.764  -4900765.244
10 0 59613  37302.000000  0    1082704.999  -4032166.578  -5486595.408
10 0 59613  37422.000000  0     672753.218  -3371291.850  -5976492.019
10 0 59613  37542.000000  0     263273.967  -2644770.295  -6361985.130
10 0 59613  37662.000000  0    -137588.791  -1865318.581  -6636425.257
10 0 59613  37782.000000  0    -522082.602  -1046683.522  -6795087.405
10 0 59613  37902.000000  0    -882991.617   -203401.536  -6835244.162
10 0 59613  38022.000000  0   -1213768.069    649454.998  -6756206.608
10 0 59613  38142.000000  0   -1508648.277   1496540.045  -6559334.272
10 0 59613  38262.000000  0   -1762750.667   2322503.195  -6248013.999
10 0 59613  38382.000000  0   -1972155.640   3112261.418  -5827609.223
10 0 59613  38502.000000  0   -2133966.345   3851271.882  -5305377.319
10 0 59613  38622.000000  0   -2246348.576   4525799.709  -4690355.872
10 0 59613  38742.000000  0   -2308549.978   5123177.596  -3993217.193
99
